OBJECT_NAME,OBJECT_ID,EPOCH,MEAN_MOTION,ECCENTRICITY,INCLINATION,RA_OF_ASC_NODE,ARG_OF_PERICENTER,MEAN_ANOMALY,EPHEMERIS_TYPE,CLASSIFICATION_TYPE,NORAD_CAT_ID,ELEMENT_SET_NO,REV_AT_EPOCH,BSTAR,MEAN_MOTION_DOT,MEAN_MOTION_DDOT
GALAXY 16 (G-16),2006-023A,2026-06-04T08:13:37.862976,1.00273848,.00031766,0.0279,203.2944,240.3993,193.5117,0,U,29236,999,7284,0,-.115E-5,0
EUTELSAT 33F,2006-032A,2026-06-04T03:27:12.489120,1.00273129,.00036754,1.6277,82.3887,345.9163,269.1817,0,U,29270,999,4717,0,.167E-5,0
JCSAT-3A,2006-033A,2026-06-04T07:19:32.089728,1.00272433,.00022751,0.0218,295.5202,141.1396,53.9755,0,U,29272,999,4761,0,-.333E-5,0
KOREASAT 5 (MUGUNGWHA 5),2006-034A,2026-06-04T00:20:38.664960,1.00269861,.00017458,1.7511,83.1445,30.2848,257.2441,0,U,29349,999,4118,0,-.346E-5,0
DIRECTV 9S,2006-043A,2026-06-04T08:04:54.050880,1.00272011,.00052095,2.3874,81.0551,3.3871,188.3822,0,U,29494,999,5125,0,-.102E-5,0
OPTUS D1,2006-043B,2026-06-04T06:32:51.502848,1.00272786,.00038432,3.0015,79.8136,349.3126,73.8066,0,U,29495,999,7199,0,-.172E-5,0
BADR-4,2006-051A,2026-06-02T21:00:38.852352,1.00437401,.0007686,1.9664,81.2933,158.1112,354.3784,0,U,29526,999,5112,0,.166E-5,0
WILDBLUE-1,2006-054A,2026-06-04T05:41:38.729184,1.00271652,.00017802,2.7695,80.6427,3.6742,142.5736,0,U,29643,999,5366,0,-.38E-6,0
SKYNET 5A,2007-007B,2026-06-04T04:49:38.495136,1.00269160,.00040583,5.2689,73.8958,7.4291,338.9369,0,U,30794,999,7056,0,-.26E-5,0
ANIK F3,2007-009A,2026-06-04T05:49:38.673408,1.00270858,.00028568,1.1637,84.0011,348.2611,149.1200,0,U,31102,999,4643,0,.11E-6,0
ASTRA 1L,2007-016A,2026-06-04T04:53:23.217216,1.00271510,.00054871,1.2881,81.6841,1.3090,218.5216,0,U,31306,999,4485,0,-.172E-5,0
GALAXY 17 (G-17),2007-016B,2026-06-04T04:36:08.099424,1.00270763,.00050045,2.9394,80.0630,12.4837,144.1277,0,U,31307,999,6967,0,-.195E-5,0
INTELSAT 11 (IS-11),2007-044B,2026-06-04T07:24:03.430656,0.99053530,.00016358,3.5318,78.8247,74.0597,33.2654,0,U,32253,999,6832,0,-.131E-5,0
WGS F1 (USA 195),2007-046A,2026-06-04T04:48:16.206912,1.00270177,.00005529,0.0517,94.2130,351.8278,196.1932,0,U,32258,999,5220,0,-.255E-5,0
SKYNET 5B,2007-056B,2026-06-04T02:55:38.657280,1.00273754,.00037501,5.2205,73.6564,355.4872,252.4278,0,U,32294,999,6806,0,.151E-5,0
ASTRA 4A,2007-057A,2026-06-04T03:19:05.765952,1.00272546,.00025962,0.0163,15.5610,62.1739,229.4330,0,U,32299,999,5151,0,.45E-6,0
HORIZONS-2,2007-063B,2026-06-04T04:14:26.556000,1.00273999,.0004229,2.5685,80.7829,351.2890,170.3820,0,U,32388,999,6768,0,-.242E-5,0
THURAYA-3,2008-001A,2026-06-04T03:42:55.980576,1.00010320,.00008587,5.9673,35.7798,145.6629,215.2674,0,U,32404,999,6735,0,-.155E-5,0
THOR 5,2008-006A,2026-06-04T05:00:07.570944,1.00270040,.00028091,0.0122,328.9107,116.2856,241.7372,0,U,32487,999,6718,0,0,0
AMC-14,2008-011A,2026-05-27T17:37:22.569600,1.00350219,.00499765,23.9628,20.7255,92.2727,95.7206,0,U,32708,999,6796,0,-.2E-7,0
DIRECTV 11,2008-013A,2026-06-03T23:24:10.038816,1.00271261,.00005152,0.0170,148.4619,243.0214,112.8090,0,U,32729,999,4546,0,-.114E-5,0
ICO G1,2008-016A,2026-06-04T08:04:04.442592,1.00271104,.00022376,5.5335,36.1853,24.8165,219.9305,0,U,32763,999,6641,0,-.162E-5,0
VINASAT-1,2008-018A,2026-06-04T07:20:39.481728,1.00268622,.00014487,0.0170,308.3979,139.5064,46.9556,0,U,32767,999,6646,0,-.316E-5,0
STAR ONE C2,2008-018B,2026-06-04T04:06:38.846016,1.00270253,.00029719,1.2077,82.5803,357.0643,169.6467,0,U,32768,999,6652,0,-.265E-5,0
AMOS-3,2008-022A,2026-06-04T03:26:05.096256,1.00469953,.00018467,0.4214,86.4460,55.6328,191.4824,0,U,32794,999,8220,0,.168E-5,0
GALAXY 18 (G-18),2008-024A,2026-06-04T05:49:38.673408,1.00271641,.00033069,0.0149,16.1375,66.3028,134.6556,0,U,32951,999,4572,0,.37E-6,0
ZHONGXING-9,2008-028A,2026-06-04T04:27:21.708288,1.00270177,.00048997,0.7360,85.5257,328.2263,358.1036,0,U,33051,999,6590,0,-.237E-5,0
SKYNET 5C,2008-030A,2026-06-04T04:55:15.537216,1.00271341,.00042911,3.7556,77.1932,5.1311,226.3730,0,U,33055,999,6582,0,-.129E-5,0
TURKSAT 3A,2008-030B,2026-06-04T03:29:42.248832,1.00271326,.00054863,0.0664,83.8256,340.5006,282.6779,0,U,33056,999,5222,0,.158E-5,0
INTELSAT 25 (IS-25),2008-034A,2026-06-04T06:41:47.494752,0.99005891,.00023187,2.6750,80.4561,14.5221,77.5328,0,U,33153,999,6556,0,-.153E-5,0
ECHOSTAR 11,2008-035A,2026-06-04T05:41:38.729184,1.00271928,.00026794,0.9713,84.3259,333.9247,170.0521,0,U,33207,999,5108,0,-.46E-6,0
SUPERBIRD-C2,2008-038A,2026-06-04T07:21:54.362880,1.00270222,.00061592,2.3275,81.4210,20.9942,36.8025,0,U,33274,999,10560,0,-.295E-5,0
