GALAXY 16 (G-16)        
1 29236U 06023A   26155.34279934 -.00000115  00000+0  00000+0 0  9999
2 29236   0.0279 203.2944 0003176 240.3993 193.5117  1.00273848 72844
EUTELSAT 33F            
1 29270U 06032A   26155.14389455  .00000167  00000+0  00000+0 0  9991
2 29270   1.6277  82.3887 0003675 345.9163 269.1817  1.00273129 47171
JCSAT-3A                
1 29272U 06033A   26155.30523252 -.00000333  00000+0  00000+0 0  9993
2 29272   0.0218 295.5202 0002275 141.1396  53.9755  1.00272433 47615
KOREASAT 5 (MUGUNGWHA 5)
1 29349U 06034A   26155.01433640 -.00000346  00000+0  00000+0 0  9992
2 29349   1.7511  83.1445 0001745  30.2848 257.2441  1.00269861 41183
DIRECTV 9S              
1 29494U 06043A   26155.33673670 -.00000102  00000+0  00000+0 0  9997
2 29494   2.3874  81.0551 0005209   3.3871 188.3822  1.00272011 51251
OPTUS D1                
1 29495U 06043B   26155.27281832 -.00000172  00000+0  00000+0 0  9993
2 29495   3.0015  79.8136 0003843 349.3126  73.8066  1.00272786 71999
BADR-4                  
1 29526U 06051A   26153.87544968  .00000166  00000+0  00000+0 0  9995
2 29526   1.9664  81.2933 0007686 158.1112 354.3784  1.00437401 51127
WILDBLUE-1              
1 29643U 06054A   26155.23725381 -.00000038  00000+0  00000+0 0  9999
2 29643   2.7695  80.6427 0001780   3.6742 142.5736  1.00271652 53662
SKYNET 5A               
1 30794U 07007B   26155.20113999 -.00000260  00000+0  00000+0 0  9997
2 30794   5.2689  73.8958 0004058   7.4291 338.9369  1.00269160 70569
ANIK F3                 
1 31102U 07009A   26155.24280872  .00000011  00000+0  00000+0 0  9995
2 31102   1.1637  84.0011 0002856 348.2611 149.1200  1.00270858 46432
ASTRA 1L                
1 31306U 07016A   26155.20374094 -.00000172  00000+0  00000+0 0  9994
2 31306   1.2881  81.6841 0005487   1.3090 218.5216  1.00271510 44853
GALAXY 17 (G-17)        
1 31307U 07016B   26155.19176041 -.00000195  00000+0  00000+0 0  9990
2 31307   2.9394  80.0630 0005004  12.4837 144.1277  1.00270763 69674
INTELSAT 11 (IS-11)     
1 32253U 07044B   26155.30837304 -.00000131  00000+0  00000+0 0  9991
2 32253   3.5318  78.8247 0001635  74.0597  33.2654  0.99053530 68326
WGS F1 (USA 195)        
1 32258U 07046A   26155.20018758 -.00000255  00000+0  00000+0 0  9998
2 32258   0.0517  94.2130 0000552 351.8278 196.1932  1.00270177 52205
SKYNET 5B               
1 32294U 07056B   26155.12197520  .00000151  00000+0  00000+0 0  9999
2 32294   5.2205  73.6564 0003750 355.4872 252.4278  1.00273754 68065
ASTRA 4A                
1 32299U 07057A   26155.13826118  .00000045  00000+0  00000+0 0  9990
2 32299   0.0163  15.5610 0002596  62.1739 229.4330  1.00272546 51517
HORIZONS-2              
1 32388U 07063B   26155.17669625 -.00000242  00000+0  00000+0 0  9998
2 32388   2.5685  80.7829 0004229 351.2890 170.3820  1.00273999 67689
THURAYA-3               
1 32404U 08001A   26155.15481459 -.00000155  00000+0  00000+0 0  9998
2 32404   5.9673  35.7798 0000858 145.6629 215.2674  1.00010320 67353
THOR 5                  
1 32487U 08006A   26155.20842096  .00000000  00000+0  00000+0 0  9996
2 32487   0.0122 328.9107 0002809 116.2856 241.7372  1.00270040 67181
AMC-14                  
1 32708U 08011A   26147.73428900 -.00000002  00000+0  00000+0 0  9994
2 32708  23.9628  20.7255 0049976  92.2727  95.7206  1.00350219 67965
DIRECTV 11              
1 32729U 08013A   26154.97511619 -.00000114  00000+0  00000+0 0  9997
2 32729   0.0170 148.4619 0000515 243.0214 112.8090  1.00271261 45463
ICO G1                  
1 32763U 08016A   26155.33616253 -.00000162  00000+0  00000+0 0  9992
2 32763   5.5335  36.1853 0002237  24.8165 219.9305  1.00271104 66412
VINASAT-1               
1 32767U 08018A   26155.30601252 -.00000316  00000+0  00000+0 0  9999
2 32767   0.0170 308.3979 0001448 139.5064  46.9556  1.00268622 66463
STAR ONE C2             
1 32768U 08018B   26155.17128294 -.00000265  00000+0  00000+0 0  9998
2 32768   1.2077  82.5803 0002971 357.0643 169.6467  1.00270253 66526
AMOS-3                  
1 32794U 08022A   26155.14311454  .00000168  00000+0  00000+0 0  9992
2 32794   0.4214  86.4460 0001846  55.6328 191.4824  1.00469953 82202
GALAXY 18 (G-18)        
1 32951U 08024A   26155.24280872  .00000037  00000+0  00000+0 0  9994
2 32951   0.0149  16.1375 0003306  66.3028 134.6556  1.00271641 45726
ZHONGXING-9             
1 33051U 08028A   26155.18566792 -.00000237  00000+0  00000+0 0  9994
2 33051   0.7360  85.5257 0004899 328.2263 358.1036  1.00270177 65909
SKYNET 5C               
1 33055U 08030A   26155.20504094 -.00000129  00000+0  00000+0 0  9991
2 33055   3.7556  77.1932 0004291   5.1311 226.3730  1.00271341 65823
TURKSAT 3A              
1 33056U 08030B   26155.14562788  .00000158  00000+0  00000+0 0  9990
2 33056   0.0664  83.8256 0005486 340.5006 282.6779  1.00271326 52222
INTELSAT 25 (IS-25)     
1 33153U 08034A   26155.27902193 -.00000153  00000+0  00000+0 0  9990
2 33153   2.6750  80.4561 0002318  14.5221  77.5328  0.99005891 65565
ECHOSTAR 11             
1 33207U 08035A   26155.23725381 -.00000046  00000+0  00000+0 0  9990
2 33207   0.9713  84.3259 0002679 333.9247 170.0521  1.00271928 51083
SUPERBIRD-C2            
1 33274U 08038A   26155.30687920 -.00000295  00000+0  00000+0 0  9997
2 33274   2.3275  81.4210 0006159  20.9942  36.8025  1.00270222105605
